[{"OBJECT_NAME":"COSMOS 2523","OBJECT_ID":"2017-037E","EPOCH":"2026-03-09T23:01:03.762912","MEAN_MOTION":14.95066265,"ECCENTRICITY":0.0066686,"INCLINATION":97.5062,"RA_OF_ASC_NODE":86.2978,"ARG_OF_PERICENTER":201.8356,"MEAN_ANOMALY":158.0021,"EPHEMERIS_TYPE":0,"CLASSIFICATION_TYPE":"U","NORAD_CAT_ID":42986,"ELEMENT_SET_NO":999,"REV_AT_EPOCH":45413,"BSTAR":0.00015362789,"MEAN_MOTION_DOT":1.699e-5,"MEAN_MOTION_DDOT":0},{"OBJECT_NAME":"STARLINK-5014","OBJECT_ID":"2022-119AS","EPOCH":"2026-03-09T22:12:29.199744","MEAN_MOTION":15.08849401,"ECCENTRICITY":0.00011151,"INCLINATION":53.2166,"RA_OF_ASC_NODE":307.8478,"ARG_OF_PERICENTER":79.9754,"MEAN_ANOMALY":280.1364,"EPHEMERIS_TYPE":0,"CLASSIFICATION_TYPE":"U","NORAD_CAT_ID":53926,"ELEMENT_SET_NO":999,"REV_AT_EPOCH":19194,"BSTAR":0.00022817723,"MEAN_MOTION_DOT":3.346e-5,"MEAN_MOTION_DDOT":0}]
